STARLINK-30501          
1 57917U 23147E   26021.54936175 -.00001175  00000+0 -71918-4 0  9992
2 57917  43.0006 222.4785 0000590 275.8438  84.2337 15.02529994129527
STARLINK-30499          
1 57918U 23147F   26022.21159826 -.00000182  00000+0  29289-5 0  9999
2 57918  43.0058  82.7028 0003024 296.4488  63.6053 15.27573937131220
STARLINK-30496          
1 57919U 23147G   26021.80862217 -.00002651  00000+0 -18132-3 0  9996
2 57919  43.0022 220.9839 0000869 268.2213  91.8530 15.02528454129569
STARLINK-30485          
1 57920U 23147H   26022.27061523 -.00000378  00000+0 -12911-4 0  9995
2 57920  42.9990 218.4311 0000807 260.2809  99.7942 15.02531551129639
STARLINK-30492          
1 57921U 23147J   26021.53608528 -.00007595  00000+0 -54843-3 0  9993
2 57921  43.0053 222.3742 0001259 288.6971  71.3734 15.02490574129498
STARLINK-30440          
1 57923U 23147L   26021.26679177  .00000817  00000+0  75502-4 0  9997
2 57923  43.0022 223.7976 0000662 275.6064  84.4703 15.02542457129484
STARLINK-30487          
1 57924U 23147M   26022.24399510 -.00003216  00000+0 -22320-3 0  9994
2 57924  43.0007 218.2138 0001073 258.0797 101.9925 15.02521652129634
STARLINK-30452          
1 57925U 23147N   26022.26062332  .00001932  00000+0  15800-3 0  9992
2 57925  43.0020 218.3479 0004695 259.2937 100.7377 15.02551562129609
STARLINK-30468          
1 57926U 23147P   26022.25732199 -.00002204  00000+0 -14819-3 0  9991
2 57926  43.0016 218.3334 0000544 275.0388  85.0393 15.02522236129609
STARLINK-30448          
1 57928U 23147R   26022.25066409 -.00001935  00000+0 -12830-3 0  9998
2 57928  43.0038 218.2797 0000911 268.9344  91.1394 15.02521331129602
STARLINK-30476          
1 57930U 23147T   26022.14020927  .00071617  00000+0  24191-2 0  9998
2 57930  42.9990 176.9798 0015851 268.1637  91.7400 15.29653881130079
STARLINK-30488          
1 57931U 23147U   26022.24733147  .00002653  00000+0  21146-3 0  9997
2 57931  43.0044 218.2552 0000907 271.5516  88.5222 15.02518289129639
STARLINK-30471          
1 57932U 23147V   26022.23068577 -.00002100  00000+0 -14047-3 0  9996
2 57932  43.0022 218.1278 0001068 246.0498 114.0232 15.02518287129606
STARLINK-30461          
1 57933U 23147W   26022.24067575 -.00002584  00000+0 -17632-3 0  9994
2 57933  43.0015 218.2075 0000840 263.2778  96.7969 15.02522108129604
STARLINK-30712          
1 57935U 23148A   26021.98945695  .00000536  00000+0  30226-4 0  9993
2 57935  53.1583 241.1175 0001315 100.2107 259.9042 15.30179247131272
STARLINK-30716          
1 57936U 23148B   26021.88835687 -.00002397  00000+0 -68869-4 0  9995
2 57936  53.1576 241.8256 0001449 121.0293 239.0851 15.30173622131253
