[{"OBJECT_NAME":"STARLINK-30501","OBJECT_ID":"2023-147E","EPOCH":"2026-01-21T13:11:04.855200","MEAN_MOTION":15.02529994,"ECCENTRICITY":5.907e-5,"INCLINATION":43.0006,"RA_OF_ASC_NODE":222.4785,"ARG_OF_PERICENTER":275.8438,"MEAN_ANOMALY":84.2337,"EPHEMERIS_TYPE":0,"CLASSIFICATION_TYPE":"U","NORAD_CAT_ID":57917,"ELEMENT_SET_NO":999,"REV_AT_EPOCH":12952,"BSTAR":-7.191833e-5,"MEAN_MOTION_DOT":-1.175e-5,"MEAN_MOTION_DDOT":0},{"OBJECT_NAME":"STARLINK-30499","OBJECT_ID":"2023-147F","EPOCH":"2026-01-22T05:04:42.089664","MEAN_MOTION":15.27573937,"ECCENTRICITY":0.00030247,"INCLINATION":43.0058,"RA_OF_ASC_NODE":82.7028,"ARG_OF_PERICENTER":296.4488,"MEAN_ANOMALY":63.6053,"EPHEMERIS_TYPE":0,"CLASSIFICATION_TYPE":"U","NORAD_CAT_ID":57918,"ELEMENT_SET_NO":999,"REV_AT_EPOCH":13122,"BSTAR":2.928878e-6,"MEAN_MOTION_DOT":-1.82e-6,"MEAN_MOTION_DDOT":0},{"OBJECT_NAME":"STARLINK-30496","OBJECT_ID":"2023-147G","EPOCH":"2026-01-21T19:24:24.955488","MEAN_MOTION":15.02528454,"ECCENTRICITY":8.694e-5,"INCLINATION":43.0022,"RA_OF_ASC_NODE":220.9839,"ARG_OF_PERICENTER":268.2213,"MEAN_ANOMALY":91.853,"EPHEMERIS_TYPE":0,"CLASSIFICATION_TYPE":"U","NORAD_CAT_ID":57919,"ELEMENT_SET_NO":999,"REV_AT_EPOCH":12956,"BSTAR":-0.00018131704,"MEAN_MOTION_DOT":-2.651e-5,"MEAN_MOTION_DDOT":0},{"OBJECT_NAME":"STARLINK-30485","OBJECT_ID":"2023-147H","EPOCH":"2026-01-22T06:29:41.155872","MEAN_MOTION":15.02531551,"ECCENTRICITY":8.075e-5,"INCLINATION":42.999,"RA_OF_ASC_NODE":218.4311,"ARG_OF_PERICENTER":260.2809,"MEAN_ANOMALY":99.7942,"EPHEMERIS_TYPE":0,"CLASSIFICATION_TYPE":"U","NORAD_CAT_ID":57920,"ELEMENT_SET_NO":999,"REV_AT_EPOCH":12963,"BSTAR":-1.2910808e-5,"MEAN_MOTION_DOT":-3.78e-6,"MEAN_MOTION_DDOT":0},{"OBJECT_NAME":"STARLINK-30492","OBJECT_ID":"2023-147J","EPOCH":"2026-01-21T12:51:57.768192","MEAN_MOTION":15.02490574,"ECCENTRICITY":0.00012596,"INCLINATION":43.0053,"RA_OF_ASC_NODE":222.3742,"ARG_OF_PERICENTER":288.6971,"MEAN_ANOMALY":71.3734,"EPHEMERIS_TYPE":0,"CLASSIFICATION_TYPE":"U","NORAD_CAT_ID":57921,"ELEMENT_SET_NO":999,"REV_AT_EPOCH":12949,"BSTAR":-0.00054842875,"MEAN_MOTION_DOT":-7.595e-5,"MEAN_MOTION_DDOT":0},{"OBJECT_NAME":"STARLINK-30440","OBJECT_ID":"2023-147L","EPOCH":"2026-01-21T06:24:10.808928","MEAN_MOTION":15.02542457,"ECCENTRICITY":6.629e-5,"INCLINATION":43.0022,"RA_OF_ASC_NODE":223.7976,"ARG_OF_PERICENTER":275.6064,"MEAN_ANOMALY":84.4703,"EPHEMERIS_TYPE":0,"CLASSIFICATION_TYPE":"U","NORAD_CAT_ID":57923,"ELEMENT_SET_NO":999,"REV_AT_EPOCH":12948,"BSTAR":7.5501701e-5,"MEAN_MOTION_DOT":8.17e-6,"MEAN_MOTION_DDOT":0},{"OBJECT_NAME":"STARLINK-30487","OBJECT_ID":"2023-147M","EPOCH":"2026-01-22T05:51:21.176640","MEAN_MOTION":15.02521652,"ECCENTRICITY":0.0001073,"INCLINATION":43.0007,"RA_OF_ASC_NODE":218.2138,"ARG_OF_PERICENTER":258.0797,"MEAN_ANOMALY":101.9925,"EPHEMERIS_TYPE":0,"CLASSIFICATION_TYPE":"U","NORAD_CAT_ID":57924,"ELEMENT_SET_NO":999,"REV_AT_EPOCH":12963,"BSTAR":-0.00022319882,"MEAN_MOTION_DOT":-3.216e-5,"MEAN_MOTION_DDOT":0},{"OBJECT_NAME":"STARLINK-30452","OBJECT_ID":"2023-147N","EPOCH":"2026-01-22T06:15:17.854848","MEAN_MOTION":15.02551562,"ECCENTRICITY":0.00046953,"INCLINATION":43.002,"RA_OF_ASC_NODE":218.3479,"ARG_OF_PERICENTER":259.2937,"MEAN_ANOMALY":100.7377,"EPHEMERIS_TYPE":0,"CLASSIFICATION_TYPE":"U","NORAD_CAT_ID":57925,"ELEMENT_SET_NO":999,"REV_AT_EPOCH":12960,"BSTAR":0.00015800272,"MEAN_MOTION_DOT":1.932e-5,"MEAN_MOTION_DDOT":0},{"OBJECT_NAME":"STARLINK-30468","OBJECT_ID":"2023-147P","EPOCH":"2026-01-22T06:10:32.619936","MEAN_MOTION":15.02522236,"ECCENTRICITY":5.446e-5,"INCLINATION":43.0016,"RA_OF_ASC_NODE":218.3334,"ARG_OF_PERICENTER":275.0388,"MEAN_ANOMALY":85.0393,"EPHEMERIS_TYPE":0,"CLASSIFICATION_TYPE":"U","NORAD_CAT_ID":57926,"ELEMENT_SET_NO":999,"REV_AT_EPOCH":12960,"BSTAR":-0.00014818933,"MEAN_MOTION_DOT":-2.204e-5,"MEAN_MOTION_DDOT":0},{"OBJECT_NAME":"STARLINK-30448","OBJECT_ID":"2023-147R","EPOCH":"2026-01-22T06:00:57.377376","MEAN_MOTION":15.02521331,"ECCENTRICITY":9.118e-5,"INCLINATION":43.0038,"RA_OF_ASC_NODE":218.2797,"ARG_OF_PERICENTER":268.9344,"MEAN_ANOMALY":91.1394,"EPHEMERIS_TYPE":0,"CLASSIFICATION_TYPE":"U","NORAD_CAT_ID":57928,"ELEMENT_SET_NO":999,"REV_AT_EPOCH":12960,"BSTAR":-0.00012829887,"MEAN_MOTION_DOT":-1.935e-5,"MEAN_MOTION_DDOT":0},{"OBJECT_NAME":"STARLINK-30476","OBJECT_ID":"2023-147T","EPOCH":"2026-01-22T03:21:54.080928","MEAN_MOTION":15.29653881,"ECCENTRICITY":0.00158511,"INCLINATION":42.999,"RA_OF_ASC_NODE":176.9798,"ARG_OF_PERICENTER":268.1637,"MEAN_ANOMALY":91.74,"EPHEMERIS_TYPE":0,"CLASSIFICATION_TYPE":"U","NORAD_CAT_ID":57930,"ELEMENT_SET_NO":999,"REV_AT_EPOCH":13007,"BSTAR":0.0024190888,"MEAN_MOTION_DOT":0.00071617,"MEAN_MOTION_DDOT":0},{"OBJECT_NAME":"STARLINK-30488","OBJECT_ID":"2023-147U","EPOCH":"2026-01-22T05:56:09.439008","MEAN_MOTION":15.02518289,"ECCENTRICITY":9.074e-5,"INCLINATION":43.0044,"RA_OF_ASC_NODE":218.2552,"ARG_OF_PERICENTER":271.5516,"MEAN_ANOMALY":88.5222,"EPHEMERIS_TYPE":0,"CLASSIFICATION_TYPE":"U","NORAD_CAT_ID":57931,"ELEMENT_SET_NO":999,"REV_AT_EPOCH":12963,"BSTAR":0.00021146486,"MEAN_MOTION_DOT":2.653e-5,"MEAN_MOTION_DDOT":0},{"OBJECT_NAME":"STARLINK-30471","OBJECT_ID":"2023-147V","EPOCH":"2026-01-22T05:32:11.250528","MEAN_MOTION":15.02518287,"ECCENTRICITY":0.00010683,"INCLINATION":43.0022,"RA_OF_ASC_NODE":218.1278,"ARG_OF_PERICENTER":246.0498,"MEAN_ANOMALY":114.0232,"EPHEMERIS_TYPE":0,"CLASSIFICATION_TYPE":"U","NORAD_CAT_ID":57932,"ELEMENT_SET_NO":999,"REV_AT_EPOCH":12960,"BSTAR":-0.00014047107,"MEAN_MOTION_DOT":-2.1e-5,"MEAN_MOTION_DDOT":0},{"OBJECT_NAME":"STARLINK-30461","OBJECT_ID":"2023-147W","EPOCH":"2026-01-22T05:46:34.384800","MEAN_MOTION":15.02522108,"ECCENTRICITY":8.407e-5,"INCLINATION":43.0015,"RA_OF_ASC_NODE":218.2075,"ARG_OF_PERICENTER":263.2778,"MEAN_ANOMALY":96.7969,"EPHEMERIS_TYPE":0,"CLASSIFICATION_TYPE":"U","NORAD_CAT_ID":57933,"ELEMENT_SET_NO":999,"REV_AT_EPOCH":12960,"BSTAR":-0.00017632479,"MEAN_MOTION_DOT":-2.584e-5,"MEAN_MOTION_DDOT":0},{"OBJECT_NAME":"STARLINK-30712","OBJECT_ID":"2023-148A","EPOCH":"2026-01-21T23:44:49.080480","MEAN_MOTION":15.30179247,"ECCENTRICITY":0.00013158,"INCLINATION":53.1583,"RA_OF_ASC_NODE":241.1175,"ARG_OF_PERICENTER":100.2107,"MEAN_ANOMALY":259.9042,"EPHEMERIS_TYPE":0,"CLASSIFICATION_TYPE":"U","NORAD_CAT_ID":57935,"ELEMENT_SET_NO":999,"REV_AT_EPOCH":13127,"BSTAR":3.0226395e-5,"MEAN_MOTION_DOT":5.36e-6,"MEAN_MOTION_DDOT":0},{"OBJECT_NAME":"STARLINK-30716","OBJECT_ID":"2023-148B","EPOCH":"2026-01-21T21:19:14.033568","MEAN_MOTION":15.30173622,"ECCENTRICITY":0.00014491,"INCLINATION":53.1576,"RA_OF_ASC_NODE":241.8256,"ARG_OF_PERICENTER":121.0293,"MEAN_ANOMALY":239.0851,"EPHEMERIS_TYPE":0,"CLASSIFICATION_TYPE":"U","NORAD_CAT_ID":57936,"ELEMENT_SET_NO":999,"REV_AT_EPOCH":13125,"BSTAR":-6.8868743e-5,"MEAN_MOTION_DOT":-2.397e-5,"MEAN_MOTION_DDOT":0}]
